[{"OBJECT_NAME":"PLEIADES NEO 4","OBJECT_ID":"2021-073E","EPOCH":"2026-03-09T22:43:10.158240","MEAN_MOTION":14.81670727,"ECCENTRICITY":0.00013011,"INCLINATION":97.8928,"RA_OF_ASC_NODE":145.1333,"ARG_OF_PERICENTER":92.4306,"MEAN_ANOMALY":267.7056,"EPHEMERIS_TYPE":0,"CLASSIFICATION_TYPE":"U","NORAD_CAT_ID":49070,"ELEMENT_SET_NO":999,"REV_AT_EPOCH":24667,"BSTAR":-4.8245874e-5,"MEAN_MOTION_DOT":-4.32e-6,"MEAN_MOTION_DDOT":0},{"OBJECT_NAME":"CZ-6A DEB","OBJECT_ID":"2022-151S","EPOCH":"2026-03-09T05:48:50.516640","MEAN_MOTION":14.69560381,"ECCENTRICITY":0.0081654,"INCLINATION":98.8143,"RA_OF_ASC_NODE":161.847,"ARG_OF_PERICENTER":229.9981,"MEAN_ANOMALY":129.4036,"EPHEMERIS_TYPE":0,"CLASSIFICATION_TYPE":"U","NORAD_CAT_ID":54275,"ELEMENT_SET_NO":999,"REV_AT_EPOCH":17551,"BSTAR":0.0027616474,"MEAN_MOTION_DOT":0.00017235,"MEAN_MOTION_DDOT":0}]
